1 25415U 98046C   13063.09536211  .00000537  00000-0  25919-3 0  9998
2 25415 044.9966 048.1948 0004564 242.7190 168.3232 14.30168750760615
1 25415U 98046C   13064.42573188  .00000413  00000-0  21149-3 0  9994
2 25415 044.9967 041.9665 0004538 248.1208 179.0716 14.30171616760806
1 25415U 98046C   13067.07777919  .00000525  00000-0  25440-3 0  9998
2 25415 044.9970 029.5507 0004477 258.7790 155.9611 14.30175233761180
1 25415U 98046C   13068.21081406  .00000590  00000-0  27941-3 0  9994
2 25415 044.9970 024.2463 0004410 263.4419 230.5019 14.30176186761349
1 25415U 98046C   13069.32826391  .00000642  00000-0  29928-3 0  9992
2 25415 044.9970 019.0148 0004401 267.7224 225.1131 14.30176647761507
1 25415U 98046C   13070.43784907  .00000748  00000-0  33970-3 0  9991
2 25415 044.9970 013.8202 0004381 271.9839 179.2148 14.30177668761664
1 25415U 98046C   13071.48937685  .00000758  00000-0  34368-3 0  9993
2 25415 044.9970 008.8975 0004254 276.5856 193.7728 14.30178958761819
1 25415U 98046C   13073.17216803  .00000625  00000-0  29258-3 0  9998
2 25415 044.9969 001.0194 0004145 283.4508 219.3550 14.30183198762052
1 25415U 98046C   13074.83028704  .00000590  00000-0  27947-3 0  9997
2 25415 044.9968 353.2567 0004019 290.2743 117.8487 14.30187133762294
1 25415U 98046C   13076.17823367  .00000408  00000-0  20965-3 0  9995
2 25415 044.9967 346.9462 0003906 296.2178 218.7252 14.30189907762481
